[{"OBJECT_NAME":"TEVEL2-3","OBJECT_ID":"2025-052J","EPOCH":"2026-03-09T15:29:22.754400","MEAN_MOTION":15.30377031,"ECCENTRICITY":0.0004761,"INCLINATION":97.3994,"RA_OF_ASC_NODE":324.7775,"ARG_OF_PERICENTER":105.7353,"MEAN_ANOMALY":254.4413,"EPHEMERIS_TYPE":0,"CLASSIFICATION_TYPE":"U","NORAD_CAT_ID":63218,"ELEMENT_SET_NO":999,"REV_AT_EPOCH":5485,"BSTAR":0.00069446,"MEAN_MOTION_DOT":0.00020365,"MEAN_MOTION_DDOT":0},{"OBJECT_NAME":"STARLINK-36558","OBJECT_ID":"2026-012G","EPOCH":"2026-03-09T23:15:36.018432","MEAN_MOTION":15.27601336,"ECCENTRICITY":0.00010629,"INCLINATION":42.9999,"RA_OF_ASC_NODE":312.9117,"ARG_OF_PERICENTER":155.2454,"MEAN_ANOMALY":204.8449,"EPHEMERIS_TYPE":0,"CLASSIFICATION_TYPE":"U","NORAD_CAT_ID":67499,"ELEMENT_SET_NO":999,"REV_AT_EPOCH":780,"BSTAR":0.001148142,"MEAN_MOTION_DOT":0.00031488,"MEAN_MOTION_DDOT":0}]
